CCSDS_OMM_VERS = 2.0
CREATION_DATE  = 
ORIGINATOR     = 

OBJECT_NAME    = COSMOS 2242
OBJECT_ID      = 1993-024A
CENTER_NAME    = EARTH
REF_FRAME      = TEME
TIME_SYSTEM    = UTC
MEAN_ELEMENT_THEORY = SGP/SGP4

EPOCH          = 2026-03-15T06:03:17.874144
MEAN_MOTION    = 14.96573845
ECCENTRICITY   = .00149313
INCLINATION    = 82.5150
RA_OF_ASC_NODE = 261.3942
ARG_OF_PERICENTER = 288.5362
MEAN_ANOMALY   = 71.4237

EPHEMERIS_TYPE = 0
CLASSIFICATION_TYPE = U
NORAD_CAT_ID   = 22626
ELEMENT_SET_NO = 999
REV_AT_EPOCH   = 78122
BSTAR          = .21031307E-3
MEAN_MOTION_DOT = .2423E-4
MEAN_MOTION_DDOT = 0

CCSDS_OMM_VERS = 2.0
CREATION_DATE  = 
ORIGINATOR     = 

OBJECT_NAME    = SL-16 R/B
OBJECT_ID      = 1993-059B
CENTER_NAME    = EARTH
REF_FRAME      = TEME
TIME_SYSTEM    = UTC
MEAN_ELEMENT_THEORY = SGP/SGP4

EPOCH          = 2026-03-15T06:20:58.657056
MEAN_MOTION    = 14.17231741
ECCENTRICITY   = .00182052
INCLINATION    = 70.9930
RA_OF_ASC_NODE = 359.3708
ARG_OF_PERICENTER = 208.3331
MEAN_ANOMALY   = 151.6804

EPHEMERIS_TYPE = 0
CLASSIFICATION_TYPE = U
NORAD_CAT_ID   = 22803
ELEMENT_SET_NO = 999
REV_AT_EPOCH   = 68032
BSTAR          = .77432773E-4
MEAN_MOTION_DOT = .109E-5
MEAN_MOTION_DDOT = 0

CCSDS_OMM_VERS = 2.0
CREATION_DATE  = 
ORIGINATOR     = 

OBJECT_NAME    = ARIANE 40 R/B
OBJECT_ID      = 1993-061H
CENTER_NAME    = EARTH
REF_FRAME      = TEME
TIME_SYSTEM    = UTC
MEAN_ELEMENT_THEORY = SGP/SGP4

EPOCH          = 2026-03-15T05:09:51.359328
MEAN_MOTION    = 14.32864044
ECCENTRICITY   = .00095672
INCLINATION    = 98.4905
RA_OF_ASC_NODE = 142.9935
ARG_OF_PERICENTER = 266.8484
MEAN_ANOMALY   = 93.1606

EPHEMERIS_TYPE = 0
CLASSIFICATION_TYPE = U
NORAD_CAT_ID   = 22830
ELEMENT_SET_NO = 999
REV_AT_EPOCH   = 69489
BSTAR          = .91898266E-4
MEAN_MOTION_DOT = .208E-5
MEAN_MOTION_DDOT = 0

CCSDS_OMM_VERS = 2.0
CREATION_DATE  = 
ORIGINATOR     = 

OBJECT_NAME    = COSMOS 2278
OBJECT_ID      = 1994-023A
CENTER_NAME    = EARTH
REF_FRAME      = TEME
TIME_SYSTEM    = UTC
MEAN_ELEMENT_THEORY = SGP/SGP4

EPOCH          = 2026-03-15T06:08:03.522912
MEAN_MOTION    = 14.14379581
ECCENTRICITY   = .00084407
INCLINATION    = 71.0548
RA_OF_ASC_NODE = 163.4539
ARG_OF_PERICENTER = 3.2480
MEAN_ANOMALY   = 356.8696

EPHEMERIS_TYPE = 0
CLASSIFICATION_TYPE = U
NORAD_CAT_ID   = 23087
ELEMENT_SET_NO = 999
REV_AT_EPOCH   = 64559
BSTAR          = -.2100902E-4
MEAN_MOTION_DOT = -.87E-6
MEAN_MOTION_DDOT = 0

CCSDS_OMM_VERS = 2.0
CREATION_DATE  = 
ORIGINATOR     = 

OBJECT_NAME    = SL-16 R/B
OBJECT_ID      = 1994-023B
CENTER_NAME    = EARTH
REF_FRAME      = TEME
TIME_SYSTEM    = UTC
MEAN_ELEMENT_THEORY = SGP/SGP4

EPOCH          = 2026-03-15T05:29:34.923552
MEAN_MOTION    = 14.15010198
ECCENTRICITY   = .00056414
INCLINATION    = 70.9985
RA_OF_ASC_NODE = 59.2525
ARG_OF_PERICENTER = 280.1567
MEAN_ANOMALY   = 79.8919

EPHEMERIS_TYPE = 0
CLASSIFICATION_TYPE = U
NORAD_CAT_ID   = 23088
ELEMENT_SET_NO = 999
REV_AT_EPOCH   = 64687
BSTAR          = -.54803313E-4
MEAN_MOTION_DOT = -.154E-5
MEAN_MOTION_DDOT = 0

CCSDS_OMM_VERS = 2.0
CREATION_DATE  = 
ORIGINATOR     = 

OBJECT_NAME    = SL-16 R/B
OBJECT_ID      = 1994-074B
CENTER_NAME    = EARTH
REF_FRAME      = TEME
TIME_SYSTEM    = UTC
MEAN_ELEMENT_THEORY = SGP/SGP4

EPOCH          = 2026-03-15T03:25:25.374720
MEAN_MOTION    = 14.79415046
ECCENTRICITY   = .00061746
INCLINATION    = 97.7101
RA_OF_ASC_NODE = 104.7396
ARG_OF_PERICENTER = 191.2631
MEAN_ANOMALY   = 261.8911

EPHEMERIS_TYPE = 0
CLASSIFICATION_TYPE = U
NORAD_CAT_ID   = 23343
ELEMENT_SET_NO = 999
REV_AT_EPOCH   = 68805
BSTAR          = .78864591E-4
MEAN_MOTION_DOT = .539E-5
MEAN_MOTION_DDOT = 0

CCSDS_OMM_VERS = 2.0
CREATION_DATE  = 
ORIGINATOR     = 

OBJECT_NAME    = SL-16 R/B
OBJECT_ID      = 1994-077B
CENTER_NAME    = EARTH
REF_FRAME      = TEME
TIME_SYSTEM    = UTC
MEAN_ELEMENT_THEORY = SGP/SGP4

EPOCH          = 2026-03-15T03:18:16.143840
MEAN_MOTION    = 14.15562839
ECCENTRICITY   = .00027823
INCLINATION    = 70.9852
RA_OF_ASC_NODE = 341.0289
ARG_OF_PERICENTER = 205.3386
MEAN_ANOMALY   = 154.7600

EPHEMERIS_TYPE = 0
CLASSIFICATION_TYPE = U
NORAD_CAT_ID   = 23405
ELEMENT_SET_NO = 999
REV_AT_EPOCH   = 61700
BSTAR          = .14772734E-3
MEAN_MOTION_DOT = .241E-5
MEAN_MOTION_DDOT = 0

CCSDS_OMM_VERS = 2.0
CREATION_DATE  = 
ORIGINATOR     = 

OBJECT_NAME    = ARIANE 40+ R/B
OBJECT_ID      = 1995-021B
CENTER_NAME    = EARTH
REF_FRAME      = TEME
TIME_SYSTEM    = UTC
MEAN_ELEMENT_THEORY = SGP/SGP4

EPOCH          = 2026-03-15T04:00:07.620768
MEAN_MOTION    = 14.39776848
ECCENTRICITY   = .00078307
INCLINATION    = 98.4486
RA_OF_ASC_NODE = 145.5750
ARG_OF_PERICENTER = 122.0875
MEAN_ANOMALY   = 292.7605

EPHEMERIS_TYPE = 0
CLASSIFICATION_TYPE = U
NORAD_CAT_ID   = 23561
ELEMENT_SET_NO = 999
REV_AT_EPOCH   = 62003
BSTAR          = .11597777E-3
MEAN_MOTION_DOT = .32E-5
MEAN_MOTION_DDOT = 0

CCSDS_OMM_VERS = 2.0
CREATION_DATE  = 
ORIGINATOR     = 

OBJECT_NAME    = SL-16 R/B
OBJECT_ID      = 1995-058B
CENTER_NAME    = EARTH
REF_FRAME      = TEME
TIME_SYSTEM    = UTC
MEAN_ELEMENT_THEORY = SGP/SGP4

EPOCH          = 2026-03-15T06:52:14.193696
MEAN_MOTION    = 14.15499061
ECCENTRICITY   = .00105631
INCLINATION    = 71.0224
RA_OF_ASC_NODE = 168.5058
ARG_OF_PERICENTER = 115.6521
MEAN_ANOMALY   = 244.5695

EPHEMERIS_TYPE = 0
CLASSIFICATION_TYPE = U
NORAD_CAT_ID   = 23705
ELEMENT_SET_NO = 999
REV_AT_EPOCH   = 56864
BSTAR          = .14194606E-3
MEAN_MOTION_DOT = .23E-5
MEAN_MOTION_DDOT = 0

CCSDS_OMM_VERS = 2.0
CREATION_DATE  = 
ORIGINATOR     = 

OBJECT_NAME    = SL-16 R/B
OBJECT_ID      = 1996-051B
CENTER_NAME    = EARTH
REF_FRAME      = TEME
TIME_SYSTEM    = UTC
MEAN_ELEMENT_THEORY = SGP/SGP4

EPOCH          = 2026-03-15T06:21:47.004768
MEAN_MOTION    = 14.12417174
ECCENTRICITY   = .00146113
INCLINATION    = 70.7601
RA_OF_ASC_NODE = 163.4386
ARG_OF_PERICENTER = 139.4048
MEAN_ANOMALY   = 220.8164

EPHEMERIS_TYPE = 0
CLASSIFICATION_TYPE = U
NORAD_CAT_ID   = 24298
ELEMENT_SET_NO = 999
REV_AT_EPOCH   = 52243
BSTAR          = .64245358E-4
MEAN_MOTION_DOT = .69E-6
MEAN_MOTION_DDOT = 0

CCSDS_OMM_VERS = 2.0
CREATION_DATE  = 
ORIGINATOR     = 

OBJECT_NAME    = ORBVIEW 2 (SEASTAR)
OBJECT_ID      = 1997-037A
CENTER_NAME    = EARTH
REF_FRAME      = TEME
TIME_SYSTEM    = UTC
MEAN_ELEMENT_THEORY = SGP/SGP4

EPOCH          = 2026-03-15T04:52:32.390688
MEAN_MOTION    = 14.35499230
ECCENTRICITY   = .00029579
INCLINATION    = 98.8576
RA_OF_ASC_NODE = 238.6612
ARG_OF_PERICENTER = 60.6949
MEAN_ANOMALY   = 299.4530

EPHEMERIS_TYPE = 0
CLASSIFICATION_TYPE = U
NORAD_CAT_ID   = 24883
ELEMENT_SET_NO = 999
REV_AT_EPOCH   = 50926
BSTAR          = .12064197E-3
MEAN_MOTION_DOT = .3E-5
MEAN_MOTION_DDOT = 0

CCSDS_OMM_VERS = 2.0
CREATION_DATE  = 
ORIGINATOR     = 

OBJECT_NAME    = SL-16 R/B
OBJECT_ID      = 1998-043G
CENTER_NAME    = EARTH
REF_FRAME      = TEME
TIME_SYSTEM    = UTC
MEAN_ELEMENT_THEORY = SGP/SGP4

EPOCH          = 2026-03-15T03:13:12.470304
MEAN_MOTION    = 14.26051124
ECCENTRICITY   = .00099405
INCLINATION    = 98.8261
RA_OF_ASC_NODE = 27.5364
ARG_OF_PERICENTER = 5.1582
MEAN_ANOMALY   = 354.9698

EPHEMERIS_TYPE = 0
CLASSIFICATION_TYPE = U
NORAD_CAT_ID   = 25400
ELEMENT_SET_NO = 999
REV_AT_EPOCH   = 43976
BSTAR          = .45639723E-4
MEAN_MOTION_DOT = .64E-6
MEAN_MOTION_DDOT = 0

