COSMOS 2242             
1 22626U 93024A   26074.25229021  .00002423  00000+0  21031-3 0  9998
2 22626  82.5150 261.3942 0014931 288.5362  71.4237 14.96573845781226
SL-16 R/B               
1 22803U 93059B   26074.26456779  .00000109  00000+0  77433-4 0  9993
2 22803  70.9930 359.3708 0018205 208.3331 151.6804 14.17231741680321
ARIANE 40 R/B           
1 22830U 93061H   26074.21517777  .00000208  00000+0  91898-4 0  9998
2 22830  98.4905 142.9935 0009567 266.8484  93.1606 14.32864044694897
COSMOS 2278             
1 23087U 94023A   26074.25559633 -.00000087  00000+0 -21009-4 0  9997
2 23087  71.0548 163.4539 0008440   3.2480 356.8696 14.14379581645596
SL-16 R/B               
1 23088U 94023B   26074.22887643 -.00000154  00000+0 -54803-4 0  9993
2 23088  70.9985  59.2525 0005641 280.1567  79.8919 14.15010198646878
SL-16 R/B               
1 23343U 94074B   26074.14265480  .00000539  00000+0  78865-4 0  9992
2 23343  97.7101 104.7396 0006174 191.2631 261.8911 14.79415046688059
SL-16 R/B               
1 23405U 94077B   26074.13768685  .00000241  00000+0  14773-3 0  9995
2 23405  70.9852 341.0289 0002782 205.3386 154.7600 14.15562839617001
ARIANE 40+ R/B          
1 23561U 95021B   26074.16675487  .00000320  00000+0  11598-3 0  9998
2 23561  98.4486 145.5750 0007830 122.0875 292.7605 14.39776848620037
SL-16 R/B               
1 23705U 95058B   26074.28627539  .00000230  00000+0  14195-3 0  9992
2 23705  71.0224 168.5058 0010563 115.6521 244.5695 14.15499061568648
SL-16 R/B               
1 24298U 96051B   26074.26512737  .00000069  00000+0  64245-4 0  9997
2 24298  70.7601 163.4386 0014611 139.4048 220.8164 14.12417174522432
ORBVIEW 2 (SEASTAR)     
1 24883U 97037A   26074.20315267  .00000300  00000+0  12064-3 0  9994
2 24883  98.8576 238.6612 0002957  60.6949 299.4530 14.35499230509269
SL-16 R/B               
1 25400U 98043G   26074.13417211  .00000064  00000+0  45640-4 0  9996
2 25400  98.8261  27.5364 0009940   5.1582 354.9698 14.26051124439766
